[{"OBJECT_NAME":"HXMT (HUIYAN)","OBJECT_ID":"2017-034A","EPOCH":"2026-03-10T07:18:04.322016","MEAN_MOTION":15.17476255,"ECCENTRICITY":0.00329792,"INCLINATION":43.0157,"RA_OF_ASC_NODE":13.2567,"ARG_OF_PERICENTER":239.7303,"MEAN_ANOMALY":120.028,"EPHEMERIS_TYPE":0,"CLASSIFICATION_TYPE":"U","NORAD_CAT_ID":42758,"ELEMENT_SET_NO":999,"REV_AT_EPOCH":48263,"BSTAR":0.00042437147,"MEAN_MOTION_DOT":8.545e-5,"MEAN_MOTION_DDOT":0},{"OBJECT_NAME":"SAOCOM 1A","OBJECT_ID":"2018-076A","EPOCH":"2026-03-09T23:06:42.673824","MEAN_MOTION":14.82173643,"ECCENTRICITY":0.0001339,"INCLINATION":97.8895,"RA_OF_ASC_NODE":257.1316,"ARG_OF_PERICENTER":83.6952,"MEAN_ANOMALY":276.4413,"EPHEMERIS_TYPE":0,"CLASSIFICATION_TYPE":"U","NORAD_CAT_ID":43641,"ELEMENT_SET_NO":999,"REV_AT_EPOCH":40140,"BSTAR":0.00017043,"MEAN_MOTION_DOT":1.305e-5,"MEAN_MOTION_DDOT":0},{"OBJECT_NAME":"H-2A R/B","OBJECT_ID":"2018-084L","EPOCH":"2026-03-10T02:56:11.665536","MEAN_MOTION":15.41368885,"ECCENTRICITY":0.00253776,"INCLINATION":98.8731,"RA_OF_ASC_NODE":286.6024,"ARG_OF_PERICENTER":23.8947,"MEAN_ANOMALY":336.3467,"EPHEMERIS_TYPE":0,"CLASSIFICATION_TYPE":"U","NORAD_CAT_ID":43682,"ELEMENT_SET_NO":999,"REV_AT_EPOCH":40584,"BSTAR":0.00051988093,"MEAN_MOTION_DOT":0.00021874,"MEAN_MOTION_DDOT":0},{"OBJECT_NAME":"SAOCOM 1B","OBJECT_ID":"2020-059A","EPOCH":"2026-03-06T22:57:01.124064","MEAN_MOTION":14.82173062,"ECCENTRICITY":0.00015046,"INCLINATION":97.8885,"RA_OF_ASC_NODE":253.2654,"ARG_OF_PERICENTER":81.2285,"MEAN_ANOMALY":278.9098,"EPHEMERIS_TYPE":0,"CLASSIFICATION_TYPE":"U","NORAD_CAT_ID":46265,"ELEMENT_SET_NO":999,"REV_AT_EPOCH":29834,"BSTAR":0.00017595012,"MEAN_MOTION_DOT":1.349e-5,"MEAN_MOTION_DDOT":0},{"OBJECT_NAME":"CSS (TIANHE)","OBJECT_ID":"2021-035A","EPOCH":"2026-03-10T06:59:45.583584","MEAN_MOTION":15.60691261,"ECCENTRICITY":0.00069786,"INCLINATION":41.4662,"RA_OF_ASC_NODE":204.4993,"ARG_OF_PERICENTER":276.4011,"MEAN_ANOMALY":83.6033,"EPHEMERIS_TYPE":0,"CLASSIFICATION_TYPE":"U","NORAD_CAT_ID":48274,"ELEMENT_SET_NO":999,"REV_AT_EPOCH":27770,"BSTAR":0.00032677228,"MEAN_MOTION_DOT":0.00027696,"MEAN_MOTION_DDOT":0},{"OBJECT_NAME":"COSMOS 2550","OBJECT_ID":"2021-056A","EPOCH":"2026-03-08T11:22:34.326624","MEAN_MOTION":15.33829151,"ECCENTRICITY":0.00083692,"INCLINATION":67.1451,"RA_OF_ASC_NODE":44.6088,"ARG_OF_PERICENTER":269.6014,"MEAN_ANOMALY":90.4182,"EPHEMERIS_TYPE":0,"CLASSIFICATION_TYPE":"U","NORAD_CAT_ID":48865,"ELEMENT_SET_NO":999,"REV_AT_EPOCH":26327,"BSTAR":-1.3338e-8,"MEAN_MOTION_DOT":-1.92e-6,"MEAN_MOTION_DDOT":0},{"OBJECT_NAME":"CZ-2C R/B","OBJECT_ID":"2022-058K","EPOCH":"2026-03-10T02:11:00.320352","MEAN_MOTION":15.54266256,"ECCENTRICITY":0.00421494,"INCLINATION":50.1894,"RA_OF_ASC_NODE":316.2255,"ARG_OF_PERICENTER":202.5748,"MEAN_ANOMALY":157.337,"EPHEMERIS_TYPE":0,"CLASSIFICATION_TYPE":"U","NORAD_CAT_ID":52794,"ELEMENT_SET_NO":999,"REV_AT_EPOCH":21019,"BSTAR":0.00057032723,"MEAN_MOTION_DOT":0.00039191,"MEAN_MOTION_DDOT":0},{"OBJECT_NAME":"CZ-2C R/B","OBJECT_ID":"2022-132E","EPOCH":"2026-03-10T00:17:47.161824","MEAN_MOTION":15.6187402,"ECCENTRICITY":0.00206612,"INCLINATION":97.2968,"RA_OF_ASC_NODE":72.339,"ARG_OF_PERICENTER":90.3292,"MEAN_ANOMALY":270.0333,"EPHEMERIS_TYPE":0,"CLASSIFICATION_TYPE":"U","NORAD_CAT_ID":54039,"ELEMENT_SET_NO":999,"REV_AT_EPOCH":19042,"BSTAR":0.00051999039,"MEAN_MOTION_DOT":0.0004566,"MEAN_MOTION_DDOT":0},{"OBJECT_NAME":"GSLV R/B","OBJECT_ID":"2022-138AN","EPOCH":"2026-03-10T07:44:26.039040","MEAN_MOTION":14.96780192,"ECCENTRICITY":0.00230459,"INCLINATION":87.3874,"RA_OF_ASC_NODE":166.1505,"ARG_OF_PERICENTER":144.6084,"MEAN_ANOMALY":215.6683,"EPHEMERIS_TYPE":0,"CLASSIFICATION_TYPE":"U","NORAD_CAT_ID":54149,"ELEMENT_SET_NO":999,"REV_AT_EPOCH":18402,"BSTAR":0.00034610509,"MEAN_MOTION_DOT":4.007e-5,"MEAN_MOTION_DDOT":0},{"OBJECT_NAME":"XRISM","OBJECT_ID":"2023-137A","EPOCH":"2026-03-09T23:17:57.797376","MEAN_MOTION":15.11505972,"ECCENTRICITY":0.00080104,"INCLINATION":31.0015,"RA_OF_ASC_NODE":281.8459,"ARG_OF_PERICENTER":41.4505,"MEAN_ANOMALY":318.674,"EPHEMERIS_TYPE":0,"CLASSIFICATION_TYPE":"U","NORAD_CAT_ID":57800,"ELEMENT_SET_NO":999,"REV_AT_EPOCH":13783,"BSTAR":0.00036526883,"MEAN_MOTION_DOT":6.442e-5,"MEAN_MOTION_DDOT":0},{"OBJECT_NAME":"ACS3","OBJECT_ID":"2024-077B","EPOCH":"2026-03-10T06:57:38.016576","MEAN_MOTION":13.8962868,"ECCENTRICITY":0.0059947,"INCLINATION":97.2067,"RA_OF_ASC_NODE":10.2667,"ARG_OF_PERICENTER":75.2215,"MEAN_ANOMALY":285.5581,"EPHEMERIS_TYPE":0,"CLASSIFICATION_TYPE":"U","NORAD_CAT_ID":59588,"ELEMENT_SET_NO":999,"REV_AT_EPOCH":9428,"BSTAR":0.014679097,"MEAN_MOTION_DOT":0.00018252,"MEAN_MOTION_DDOT":0},{"OBJECT_NAME":"SZ-21 MODULE","OBJECT_ID":"2025-246C","EPOCH":"2026-03-08T17:40:24.022560","MEAN_MOTION":15.68463397,"ECCENTRICITY":0.00013651,"INCLINATION":41.4736,"RA_OF_ASC_NODE":209.2286,"ARG_OF_PERICENTER":296.9264,"MEAN_ANOMALY":63.1439,"EPHEMERIS_TYPE":0,"CLASSIFICATION_TYPE":"U","NORAD_CAT_ID":66515,"ELEMENT_SET_NO":999,"REV_AT_EPOCH":1792,"BSTAR":0.0004111263,"MEAN_MOTION_DOT":0.00047754,"MEAN_MOTION_DDOT":0}]
